#dP2022 12 23  6  0  0.00000000      96 __u+U ITR00 EXT  IAC
## 2241 453600.00000000   900.00000000 59936 0.2500000000000
+  117   C06C07C08C09C10C11C12C13C14C16C19C20C21C22C23C24C25
+        C26C27C28C29C30C32C33C34C36C37C38C40C41C42C43C44C45
+        C46E01E02E03E04E05E07E08E09E10E11E12E13E14E15E18E19
+        E21E24E25E26E27E30E31E33E34E36G01G02G03G04G05G06G07
+        G08G09G10G11G12G13G14G15G16G17G18G19G20G21G22G23G24
+        G25G26G27G29G30G31G32J02J03J04R01R02R03R04R05R07R08
+        R09R11R12R13R14R15R16R17R18R19R20R21R22R24R25  0  0
++        10 10 10 10 10  8 10 10 10 10  9  9  9  8  9  9  9
++         8  9  9  9  9  8  8 10  9  9 10 10  9  8 10  9  9
++         8  9  8  8  8  8  8  9  8  8  8  8  9  8  8  8  8
++         9  8  9  9  9  9  8  8  8  8  8  8  8  8  8  8  8
++         9  8  8  8  8  9  8  8  9  8  8  9  8  8  8  8  8
++         7  9  8  8  8  8  8 10 10  9  8  8  8  8  8  8  9
++         8  8 10 10  9  9  9  8  8  9  9 10 10  8  9  0  0
%c M  cc GPS ccc cccc cccc cccc cccc ccccc ccccc ccccc ccccc
%c cc cc ccc ccc cccc cccc cccc cccc ccccc ccccc ccccc ccccc
%f  0.0000000  0.000000000  0.00000000000  0.000000000000000
%f  0.0000000  0.000000000  0.00000000000  0.000000000000000
%i    0    0    0    0      0      0      0      0         0
%i    0    0    0    0      0      0      0      0         0
/* IAC                                ULTRA-RAPID PREDICTION
/* S/V CLOCKS ARE ALIGNED TO GNSS TIME                      
/* G:C1WC2W R:C1PC2P E:C1XC5X C:C2IC6I J:C1CC2S             
/* PCV:IGS20_2239 OL/AL:FES2004  NONE     YN ORB:CoN CLK:CoN
*  2022 12 23  9 45  0.00000000
PC06 -14050.340414  39040.051714   6603.051199    213.649854
PC07   -704.478979  33066.275297  26281.110089    121.059099
PC08 -13816.389750  20682.991973 -34088.306874    524.636431
PC09  -9178.972420  38305.915886  14648.094728   -776.264691
PC10   5066.430452  35309.901701  23139.706003     46.282998
PC11   7845.746356 -26691.367425   2082.986277   -219.774194
PC12  16069.749620 -17423.689865 -14675.279043    360.052983
PC13  -6349.380741  22487.667692 -34972.599788    165.231782
PC14  -1423.712544 -20554.053996  18813.976561    293.552738
PC16 -16654.209292  38492.886557   2678.504245     96.410916
PC19  10251.002761  23059.769532 -11903.582799   -901.501682
PC20  -5857.006934  15933.436116 -22143.367743    795.495871
PC21  19668.395555   1421.236878  19763.617243   -923.407347
PC22  21181.055073  17271.526554   5681.917210   -724.842417
PC23 -20520.378220  -8090.047671 -17103.496054   -870.996059
PC24  18933.837595 -14715.052570 -14263.484364   -637.479731
PC25  -2817.322173 -16069.943584 -22650.923088     43.926988
PC26  27192.338815  -6125.454842    773.473208    -53.870092
PC27 -17426.712305   8810.043921  19915.142681     70.508990
PC28 -12757.222388 -10865.677907  22321.292899     50.495766
PC29    786.082282  25582.727064 -11119.123465     57.547279
PC30 -11927.081627  24241.760192   6940.285017      1.247258
PC32 -19715.188709  -1353.254096 -19690.707942   -673.348809
PC33 -10260.139464 -22998.837981  12015.354899   -889.824517
PC34  11352.049245 -24837.718105  -5808.768630     67.375601
PC36   1645.146848  16284.431982  22619.043308   -747.161895
PC37 -27464.442108   4574.664360  -2103.738319   -871.644115
PC38 -20920.784904  21932.101295 -29370.485603     46.925334
PC40  -4954.428914  28526.672034  30730.251603    -10.821542
PC41 -21061.362909 -17587.774983  -5046.990308   -411.426009
PC42   7036.028919 -15059.947166  22453.613370   -906.021577
PC43   -190.476849 -25907.048015  10395.153681     31.574235
PC44  17232.676928  -9217.038168 -19940.410321    154.030650
PC45  20764.867714   7775.759547  16920.117465    -38.261203
PC46 -17450.866869  15214.968858  15605.376996    -21.460432
PE01  24257.422409  14494.971974   8787.543705   -582.389014
PE02 -24469.661576 -14355.541470  -8495.987480     10.270174
PE03 -15662.073376 -19175.884607 -16226.776349   -632.617587
PE04  17035.825265  -1572.177890  24155.136425    -20.227010
PE05  -5029.867612 -29136.295609   1450.473897   -112.336062
PE07  -8395.715152  21921.352145 -18034.040123     -9.408791
PE08 -16908.126239   1507.566749 -24254.117865     -7.358663
PE09   8366.932292 -21753.562958  18238.847899   -773.990295
PE10  23766.204302 -16792.870449  -5397.564587   -499.818976
PE11  19272.673905 -21851.654535   5250.740934    130.639146
PE12  24249.152066  -9451.899174 -14108.955176   -348.966239
PE13 -19782.875958  21581.770809  -4346.556828    430.265541
PE14  11038.797171 -20260.936733 -15022.776514     92.582560
PE15 -24145.885388   9244.516995  14421.256703    699.057720
PE18    192.263762  30057.945294   1886.007389   -595.248692
PE19  14543.326799  21462.452926  14275.799709  -3672.349560
PE21   8220.271739  18370.695603  21699.872319   -501.981659
PE24  14686.178877 -11646.880026 -22916.022042  -1017.354480
PE25  -7902.715928 -18360.202881 -21832.616358   -595.563979
PE26  -3009.450327  20898.383087 -20737.305344  -1873.101601
PE27 -13777.653099  12138.058932  23222.347231   -469.970425
PE30 -27663.291352  -1799.522076  10400.043211  -1100.831311
PE31  27424.295244   1173.125309 -11055.241465   -511.398073
PE33  14230.616886   8447.836425 -24531.802712   -455.247846
PE34 -14389.599201  -8278.471313  24508.364593    -21.068248
PE36   3868.813423 -21137.272726  20367.783821   -479.543811
PG01  -9706.707172  19626.943719 -15092.487829    233.935541
PG02   5529.277904 -20543.372427  16666.483351   -631.513509
PG03   -865.338073  15481.858317 -21700.951870   -374.994838
PG04  -1115.255491  25949.169256  -5271.762420    -63.186843
PG05  15749.904866  -8646.217918  19428.132793   -109.160191
PG06  20519.219878  -1718.457450 -16752.965835    545.615779
PG07   5483.108821  15144.141550  21478.844524    270.274720
PG08  -7675.054203  20031.022309  15363.177881   -100.027133
PG09   7823.325374  24723.366244   5549.983069   -248.864373
PG10 -23980.898685 -11594.050379   2448.028354    -17.313443
PG11  23359.202046 -11081.430905  -5991.119065    -62.692932
PG12   3151.314365 -15223.908815 -21819.340661   -319.301530
PG13  12951.263929 -13231.352921  18794.057844    446.827469
PG14  22531.858011  13529.650785   4265.418635    -63.264914
PG15   5322.428322 -21185.904572  14467.472429     -1.689975
PG16 -19634.595567   3396.226415  17500.462371   -525.642734
PG17  12342.182531  16275.622689 -16488.818158    688.041293
PG18  -7325.175077 -13129.526628  21890.882897    -70.015951
PG19  14894.352562   4458.986875 -21795.914010    254.286415
PG20  24034.316932  -2441.857499  10807.142804    461.746962
PG21 -15687.039823  19892.206500  -5873.207705    153.137925
PG22 -15029.251749   -782.000354 -21467.853552    390.555925
PG23 -17395.774729 -15754.371874  12569.952980      0.629450
PG24  11529.331127 -21310.885109 -10718.006647      2.888429
PG25  -8284.827897 -17495.077416 -18608.384388    404.649665
PG26 -25498.938700  -2922.124350   7380.354508    238.983193
PG27 -13179.877879   9162.639880  20857.598841    145.822879
PG29  -3942.145017 -25965.954505   3619.678796   -575.883423
PG30  16414.876308   6204.065724  20092.899075   -534.886384
PG31 -21853.334652   2549.554606 -15361.839780   -204.126342
PG32 -14604.387521 -12868.873550 -18005.632280   -339.397177
PJ02 -28750.978628  21255.381077  27361.870475     -0.386371
PJ03 -31568.779314  27265.785845  10840.415706     -7.301668
PJ04 -23051.650901  22264.200091 -22240.616452    116.054676
PR01  11833.306552  22072.024304  -4865.059308     20.020585
PR02  16235.597960  14067.599658  13737.263834    -23.373312
PR03  11282.562251  -2289.702695  22797.514289     69.575321
PR04     80.855500 -16854.748754  19178.200594    169.661194
PR05 -11038.041654 -22451.033222   5068.313914    105.008750
PR07 -10909.059184   2910.444812 -22842.017602     46.625349
PR08     51.947240  16977.152497 -18969.554271    -68.659592
PR09 -23337.212834  -3338.129700  -9634.158715     94.564129
PR11 -11725.092115  10213.292445  20223.770632     12.737664
PR12   8975.471621  10007.833951  21694.077493     23.824195
PR13  22537.101102   4148.924818  11178.161136    -30.225074
PR14  23850.359177  -4857.636713  -7644.849956     24.124381
PR15  10762.564367 -10376.767684 -20652.341143     92.171756
PR16  -8687.745173  -9853.163344 -21855.449712      9.013128
PR17  15200.985719 -13904.358843 -15000.073535    589.381843
PR18  11923.498738 -22565.138095    854.803465     58.190241
PR19   3843.758449 -20048.332284  15299.650773   -215.579851
PR20  -9621.554822  -4034.895511  23289.909249    -84.496097
PR21 -15286.910223  15162.018254  13706.336725   -359.709003
PR22 -12406.837547  22221.820301  -1578.029036     18.888842
PR24  10490.148610   3287.951741 -22992.774224    134.667093
PR25 -16031.118844  12751.050438  15224.760919     49.634869
EOF
